0 COSMOS 2251 DEB
1 35655U 93036ANW 13281.84566182  .00003983  00000-0  10532-2 0  4317
2 35655 073.9994 091.6893 0021946 325.5680 034.4056 14.49025826235333
0 COSMOS 2251 DEB
1 35655U 93036ANW 13283.08836995  .00004104  00000-0  10854-2 0  4321
2 35655 074.0019 089.3542 0019983 322.2867 037.7017 14.49037835235513
0 COSMOS 2251 DEB
1 35655U 93036ANW 13283.77875933  .00006066  00000-0  15928-2 0  4340
2 35655 074.0040 088.0540 0019824 316.5174 043.4913 14.49044397235613
0 COSMOS 2251 DEB
1 35655U 93036ANW 13285.78085731  .00004645  00000-0  12268-2 0  4347
2 35655 074.0066 084.2860 0018634 309.7062 050.3001 14.49069676235906
0 COSMOS 2251 DEB
1 35655U 93036ANW 13287.09255616  .00004982  00000-0  13153-2 0  4364
2 35655 074.0040 081.8226 0016810 306.4162 053.5955 14.49087126236090
0 COSMOS 2251 DEB
1 35655U 93036ANW 13288.81845328  .00005263  00000-0  13872-2 0  4372
2 35655 074.0034 078.5892 0020610 308.3428 051.5788 14.49108845236346
0 COSMOS 2251 DEB
1 35655U 93036ANW 13289.09459832  .00005432  00000-0  14324-2 0  4386
2 35655 073.9995 078.0608 0017511 305.9972 054.0116 14.49114691236386
0 COSMOS 2251 DEB
1 35655U 93036ANW 13290.75141282  .00009198  00000-0  24093-2 0  4408
2 35655 074.0028 074.9427 0020469 303.8257 056.1439 14.49151274236624
0 COSMOS 2251 DEB
1 35655U 93036ANW 13290.75141671  .00005767  00000-0  15183-2 0  4396
2 35655 074.0006 074.9562 0020816 304.4918 055.4275 14.49139188236627
0 COSMOS 2251 DEB
1 35655U 93036ANW 13291.78692915  .00006350  00000-0  16693-2 0  4400
2 35655 074.0011 073.0109 0022428 305.6147 054.3534 14.49159471236777
0 COSMOS 2251 DEB
1 35655U 93036ANW 13292.06305100  .00006467  00000-0  17005-2 0  4417
2 35655 073.9996 072.4908 0021053 305.1471 054.7954 14.49164903236816
0 COSMOS 2251 DEB
1 35655U 93036ANW 13293.02950424  .00006827  00000-0  17947-2 0  4425
2 35655 074.0065 070.6722 0019168 294.3378 065.6505 14.49182884236954
0 COSMOS 2251 DEB
1 35655U 93036ANW 13293.78883916  .00006928  00000-0  18201-2 0  4436
2 35655 074.0083 069.2451 0019963 292.2348 067.6723 14.49195190237065
0 COSMOS 2251 DEB
1 35655U 93036ANW 13295.72171174  .00007190  00000-0  18872-2 0  4445
2 35655 074.0056 065.6172 0020861 294.0620 065.8536 14.49225849237345
